LEMUR-1                 
1 40044U 14033AL  23361.43477088  .00003842  00000+0  53132-3 0  9992
2 40044  97.6779 166.3431 0056416 147.9024 212.5643 14.77514999511783
LEMUR-2-ANUBHAVTHAKUR   
1 41873U 16062E   23361.00324891  .00042541  00000+0  71900-3 0  9995
2 41873  51.6701 218.4042 0006811 128.3361 231.8242 15.51148408395035
LEMUR-2-SAM-AMELIA      
1 42781U 17036S   23361.61715053  .00105655  00000+0  10315-2 0  9995
2 42781  97.1168  39.5274 0004833  91.1622 269.0192 15.65842330363014
LEMUR-2-GREENBERG       
1 42837U 17042N   23361.52599071  .00009323  00000+0  74776-3 0  9991
2 42837  97.3718 193.8171 0012162 272.9363  87.0470 15.00243567351722
LEMUR-2-ANDIS           
1 42838U 17042P   23361.52615761  .00009999  00000+0  80239-3 0  9997
2 42838  97.3702 193.6446 0012180 271.3765  88.6064 15.00203367351728
LEMUR-2-MONSON          
1 42839U 17042Q   23361.52933643  .00008289  00000+0  67621-3 0  9991
2 42839  97.3744 193.2924 0010978 276.0778  83.9195 14.99635901351689
LEMUR-2-FURIAUS         
1 42840U 17042R   23361.50037183  .00009687  00000+0  78635-3 0  9995
2 42840  97.3808 193.6750 0008672 290.4986  69.5307 14.99799577351676
LEMUR-2-PETERG          
1 42841U 17042S   23361.47780747  .00009106  00000+0  74204-3 0  9997
2 42841  97.3768 194.9899 0009792 271.7714  88.2389 14.99659868351749
LEMUR-2-DEMBITZ         
1 42842U 17042T   23361.53412239  .00008903  00000+0  71908-3 0  9995
2 42842  97.3728 195.0020 0011383 269.7302  90.2617 14.99993877351774
LEMUR-2-ZACHARY         
1 42845U 17042W   23361.52994691  .00010585  00000+0  79414-3 0  9993
2 42845  97.3820 194.7051 0007590 317.1671  42.8963 15.02793786351894
LEMUR-2-JIN-LUEN        
1 43182U 18014C   23361.24890658  .00011035  00000+0  72532-3 0  9990
2 43182  97.6035 260.9026 0011871 218.6289 141.4091 15.07711821322650
LEMUR-2-URAMCHANSOL     
1 43183U 18014D   23361.30540121  .00012705  00000+0  78926-3 0  9993
2 43183  97.6021 261.8246 0012454 207.2250 152.8327 15.09743870322716
LEMUR-2-KADI            
1 43184U 18014E   23361.22746895  .00010725  00000+0  69194-3 0  9998
2 43184  97.5882 260.5259 0011277 193.6508 166.4417 15.08409468322652
LEMUR-2-THENICKMOLO     
1 43185U 18014F   23361.50645032  .00014330  00000+0  90925-3 0  9993
2 43185  97.5967 261.4199 0007502 192.7345 167.3695 15.08980244322716
LEMUR-2-CHRISTINAHOLT   
1 43882U 18111G   23361.23516133  .00021160  00000+0  12476-2 0  9997
2 43882  97.6443 268.2178 0007824 191.1712 168.9345 15.11568249273591
LEMUR-2-TINYKEV         
1 43883U 18111H   23361.26213397  .00018846  00000+0  10436-2 0  9998
2 43883  97.6239 268.1938 0008054 185.1293 174.9857 15.13847900273660
LEMUR-2-REMY-COLTON     
1 43884U 18111J   23361.26161011  .00016598  00000+0  97459-3 0  9997
2 43884  97.6381 268.9705 0001876 116.8618 243.2804 15.11793014271660
LEMUR-2-GUSTAVO         
1 43885U 18111K   23361.25985428  .00015509  00000+0  92446-3 0  9995
2 43885  97.6369 268.2395 0013423 195.1906 164.8923 15.11189269273614
LEMUR-2-ZO              
1 43886U 18111L   23361.32179604  .00016017  00000+0  95774-3 0  9997
2 43886  97.6261 268.0517 0011227 214.8970 145.1524 15.11091402273632
LEMUR-2-NATALIEMURRAY   
1 43887U 18111M   23361.25785950  .00016275  00000+0  96269-3 0  9993
2 43887  97.6389 269.1069 0010181 157.7913 202.3760 15.11490117273654
LEMUR-2-SARAHBETTYBOO   
1 43888U 18111N   23361.24899952  .00018218  00000+0  10601-2 0  9995
2 43888  97.6729 271.3339 0009713 251.0198 108.9980 15.12062387273672
LEMUR-2-DAISY-HARPER    
1 43889U 18111P   23361.26057286  .00022519  00000+0  12647-2 0  9995
2 43889  97.6614 271.1982 0007393 248.9455 111.0985 15.13308671273682
LEMUR-2-LILLYJO         
1 44396U 19038L   23361.44800437  .00290624  00000+0  22426-2 0  9992
2 44396  97.6311 354.2201 0009104 337.9925  22.0944 15.71029798248569
LEMUR-2-WANLI           
1 44402U 19038S   23360.91724767  .00277412  00000+0  20580-2 0  9991
2 44402  97.6345 354.1214 0007717 339.3210  20.7739 15.72023773248518
LEMUR-2-MORAG           
1 44403U 19038T   23361.51653321  .00152180  00000+0  19417-2 0  9997
2 44403  97.6464 353.2381 0010710 336.9588  23.1185 15.58706258248448
LEMUR-2-DUSTINTHEWIND   
1 44405U 19038V   23361.51975077  .00121584  00000+0  15002-2 0  9994
2 44405  97.6500 352.6325 0011519 323.7861  36.2614 15.59687509248459
LEMUR-2-ALEX-MADDY      
1 44407U 19038X   23361.52144309  .00027672  00000+0  60816-3 0  9990
2 44407  97.6680 349.1713 0013073 345.2294  14.8569 15.43893141248127
LEMUR-2-EJATTA          
1 44409U 19038Z   23361.51290313  .00210122  00000+0  21522-2 0  9992
2 44409  97.6407 354.1701 0009994 325.4151  34.6456 15.64249820248574
LEMUR-2-GREGROBINSON    
1 44411U 19038AB  23361.51912945  .00256181  00000+0  22715-2 0  9997
2 44411  97.6367 355.1840 0011364 340.2403  19.8415 15.67713443248240
LEMUR-2-YNDRD           
1 44413U 19038AD  23361.51613628  .00079197  00000+0  15503-2 0  9992
2 44413  97.6626 349.5899 0012993 335.4604  24.6025 15.47036717248183
LEMUR-2-JPGSQUARED      
1 44855U 19089D   23361.37429490  .00042286  00000+0  17089-2 0  9994
2 44855  36.9650 342.5533 0007564 193.8978 166.1565 15.23800699222413
LEMUR-2-HIMOMANDDAD     
1 44860U 19089J   23361.37610151  .00047731  00000+0  18422-2 0  9998
2 44860  36.9644 343.4782 0009096 196.1509 163.8952 15.25291376222283
LEMUR-2-PAPPY           
1 44861U 19089K   23361.37062616  .00032209  00000+0  14177-2 0  9993
2 44861  36.9617 349.8935 0007869 181.1387 178.9345 15.20982163222276
LEMUR-2-THEODOSIA       
1 44863U 19089M   23361.31918821  .00042115  00000+0  16663-2 0  9996
2 44863  36.9636 342.0112 0006418 195.5344 164.5209 15.24518519222265
LEMUR-2-ETHANOAKES      
1 46298U 20061AC  23361.16672686  .00101323  00000+0  11010-2 0  9999
2 46298  97.3824  79.7140 0000635 109.0926 251.0401 15.63145561183971
LEMUR-2-OSCARLATOR      
1 46299U 20061AD  23361.22542024  .00168109  00000+0  94910-3 0  9995
2 46299  97.3838  83.6378 0003272 122.0711 238.0874 15.78666971184251
LEMUR-2-SLICERS         
1 46500U 20068Q   23361.40817966  .00031655  00000+0  11698-2 0  9993
2 46500  97.7754 316.5987 0007647 160.3334 199.8200 15.27639796178526
LEMUR-2-DAYWZAGOODDAY   
1 46501U 20068R   23361.47062248  .00027180  00000+0  10535-2 0  9993
2 46501  97.7790 316.8378 0008015 163.8422 196.3073 15.26088463178528
LEMUR-2-SUSURRUS        
1 46502U 20068S   23361.47448204  .00033456  00000+0  12368-2 0  9993
2 46502  97.7772 316.7033 0007594 159.1976 200.9573 15.27616167178536
LEMUR-2-NICHOL          
1 46503U 20068T   23361.43403997  .00025320  00000+0  10329-2 0  9996
2 46503  97.7794 315.8988 0007839 172.9719 187.1629 15.24392365178479
LEMUR-2-OZARAK          
1 46908U 20081D   23361.53617969  .00029997  00000+0  13550-2 0  9990
2 46908  36.8975 114.4718 0006160  32.1819 327.9303 15.20122062172480
LEMUR-2-JINDRA          
1 46909U 20081E   23361.50590768  .00023204  00000+0  92948-3 0  9999
2 46909  36.8971 104.9306 0006297  60.3848 299.7527 15.24254515172599
LEMUR-2-WALLACE         
1 46910U 20081F   23361.57523153  .00038591  00000+0  16107-2 0  9999
2 46910  36.8973 108.2717 0006618  46.0822 314.0471 15.22743549172559
LEMUR-2-JEREMIAH        
1 46911U 20081G   23361.60299737  .00026941  00000+0  12362-2 0  9997
2 46911  36.9032 112.3688 0009976  36.8664 323.2767 15.19583539172525
LEMUR-2-NEVA            
1 47450U 21006AP  23361.14274495  .00381131  00000+0  22661-2 0  9995
2 47450  97.3654  65.6365 0001060 150.2759 209.8567 15.76925458162663
LEMUR-2-MANGO1          
1 47493U 21006CJ  23361.55759124  .00073696  00000+0  14418-2 0  9999
2 47493  97.3637  60.5875 0004903 109.0738 251.1043 15.47153528162410
LEMUR-2-RUAIRI-EILIDH   
1 47511U 21006DC  23361.13393270  .00055644  00000+0  78790-3 0  9997
2 47511  97.3586  61.4758 0002594 110.3978 249.7556 15.56319249162448
LEMUR-2-JENNIFERSONG    
1 47525U 21006DR  23360.71722036  .03283360  24233-5  92724-3 0  9995
2 47525  97.3327  67.1249 0006926 289.9601  70.0946 16.27695352162767
LEMUR-2-CHANTAL         
1 47529U 21006DV  23361.60184531  .00045058  00000+0  10181-2 0  9993
2 47529  97.3608  59.7285 0005007 105.7992 254.3808 15.43038051163328
LEMUR-2-NOOBNOOB        
1 47538U 21006DY  23361.14568690  .00100548  00000+0  18161-2 0  9996
2 47538  97.3662  62.8420 0005674  96.2517 263.9380 15.49344387162475
LEMUR-2-AMANDA-SVANTE   
1 48269U 21034B   23361.15766746  .00008296  00000+0  75946-3 0  9994
2 48269  97.6868  64.7815 0003725  48.8617 311.2925 14.95197034144619
LEMUR-2-SPECIAL-K       
1 48273U 21034F   23361.17652456  .00011394  00000+0  10341-2 0  9993
2 48273  97.6858  64.8983 0003762  43.5071 316.6447 14.95450145144632
LEMUR-2-JACKSON         
1 48885U 21059G   23361.37071991  .00229740  00000+0  19139-2 0  9990
2 48885  97.5776 148.9634 0007467 295.5107  64.5382 15.69367869139364
LEMUR-2-ANNABANANA      
1 48923U 21059AW  23361.41876707  .00050290  00000+0  73781-3 0  9992
2 48923  97.5854 149.9131 0004559 274.1037  85.9695 15.55368863139477
LEMUR-2-AC-CUBED        
1 48927U 21059BA  23361.35821127  .00178487  00000+0  16908-2 0  9991
2 48927  97.6039 150.7465 0007034 285.5242  74.5240 15.66350516139469
LEMUR-2-MERIMA          
1 48929U 21059BC  23361.38173281  .00464774  00000+0  19535-2 0  9993
2 48929  97.5610 152.4514 0007222 288.5745  71.4740 15.84323977139630
LEMUR-2-RAMONAMAE       
1 51021U 22002AP  23361.16660786  .00045062  00000+0  89121-3 0  9990
2 51021  97.4204  73.4167 0003031 270.8119  89.2783 15.46975028108586
LEMUR-2-KING-JULIEN     
1 51022U 22002AQ  23361.17036578  .00470421  00000+0  26225-2 0  9994
2 51022  97.4139  74.9140 0004129 268.8934  91.1860 15.78145996108690
LEMUR-2-ROHOVITHSA      
1 51036U 22002BE  23361.17020987  .00044190  00000+0  12382-2 0  9995
2 51036  97.4177  68.2143 0004831 287.8879  72.1838 15.36468042108244
LEMUR-2-MIRIWARI        
1 51054U 22002BY  23361.19017397  .00044758  00000+0  11739-2 0  9993
2 51054  97.4151  68.5501 0004156 284.5169  75.5615 15.38518943108274
